0 FENGYUN 1C DEB
1 29777U 99025BT  13281.42084308  .00000244  00000-0  22352-3 0  1428
2 29777 099.1844 230.3510 0093455 303.4189 173.2063 13.90743127341879
0 FENGYUN 1C DEB
1 29777U 99025BT  13283.85593271  .00000095  00000-0  10822-3 0  1435
2 29777 099.1848 232.7584 0093413 296.7667 124.9758 13.90746070342212
0 FENGYUN 1C DEB
1 29777U 99025BT  13285.87039057 -.00000009  00000-0  27544-4 0  1443
2 29777 099.1853 234.7498 0093385 291.2578 130.7887 13.90747625342498
0 FENGYUN 1C DEB
1 29777U 99025BT  13288.10068439  .00000131  00000-0  13586-3 0  1454
2 29777 099.1861 236.9546 0093370 285.1570 137.2516 13.90747545342800
0 FENGYUN 1C DEB
1 29777U 99025BT  13290.34984339  .00000272  00000-0  24469-3 0  1468
2 29777 099.1867 239.1782 0093357 279.0054 238.1709 13.90746979343117
0 FENGYUN 1C DEB
1 29777U 99025BT  13292.36441395  .00000265  00000-0  23957-3 0  1476
2 29777 099.1870 241.1701 0093349 273.4962 244.5640 13.90748149343398
0 FENGYUN 1C DEB
1 29777U 99025BT  13294.86282781  .00000101  00000-0  11322-3 0  1488
2 29777 099.1871 243.6408 0093384 266.6567 153.4383 13.90751319343748
